SAUDISAT 5A             
1 43831U 18102A   26159.84796571  .00005960  00000+0  22079-3 0  9993
2 43831  97.3070 221.5900 0010406 155.1304 205.0439 15.27963113414400
SAUDISAT 5B             
1 43833U 18102C   26159.86822313  .00005420  00000+0  19945-3 0  9990
2 43833  97.3179 224.6644 0011034 157.6933 202.4789 15.28224086414526
GAOFEN-10R              
1 44622U 19066A   26159.85504168  .00001253  00000+0  16071-3 0  9998
2 44622  98.0498 113.3738 0006091 150.8050 209.3504 14.83043192361142
CARTOSAT-3              
1 44804U 19081A   26159.85847804  .00002375  00000+0  11586-3 0  9996
2 44804  97.4303 221.8595 0012323 176.3859 183.7467 15.19219256362200
GAOFEN-12 01            
1 44819U 19082A   26159.83397439  .00000429  00000+0  62744-4 0  9996
2 44819  97.8101 166.4339 0002469  80.2460 279.9031 14.80452009352854
CSG-1                   
1 44873U 19092A   26159.81505458  .00000490  00000+0  68085-4 0  9999
2 44873  97.8888 343.5390 0001448  90.4234 269.7145 14.82158305350236
NEMO-HD                 
1 46277U 20061F   26159.83691513  .00011394  00000+0  24819-3 0  9998
2 46277  97.1923 221.8749 0002562  89.6388 270.5154 15.44427316320690
SENTINEL-6A             
1 46984U 20086A   26159.73135880 -.00000031  00000+0  13155-3 0  9997
2 46984  66.0385 152.6152 0007927 270.2901  89.7206 12.80929802259244
CAS500-1                
1 47932U 21022A   26159.83494928  .00006618  00000+0  30815-3 0  9992
2 47932  97.3909  55.2569 0004096 335.5967  24.5074 15.20239843289494
GAOFEN-12 02            
1 48079U 21026A   26159.84414013  .00000379  00000+0  56663-4 0  9995
2 48079  97.9920 158.0590 0003339 258.7888 101.2949 14.80289762280528
PLEIADES NEO 3          
1 48268U 21034A   26159.87912426  .00000596  00000+0  82384-4 0  9998
2 48268  97.8926 234.7653 0001381  85.4626 274.6745 14.81667988276429
PLEIADES NEO 4          
1 49070U 21073E   26159.84536716  .00001481  00000+0  19482-3 0  9996
2 49070  97.8928 234.7277 0001392  84.3549 275.7822 14.81666514260132
LANDSAT 9               
1 49260U 21088A   26159.75009997  .00000319  00000+0  80960-4 0  9998
2 49260  98.2279 230.0293 0001458  88.2591 271.8775 14.57105137249770
CSG-2                   
1 51444U 22008A   26159.84879352 -.00000114  00000+0 -77042-5 0  9991
2 51444  97.8890 343.5674 0001380  82.1067 278.0302 14.82148835235353
GAOFEN-12 03            
1 52912U 22069A   26159.87254203  .00000941  00000+0  13110-3 0  9994
2 52912  97.8286  47.9518 0001726 110.0640 250.0758 14.80022724213387
SWOT                    
1 54754U 22173A   26159.77100719  .00000037  00000+0  27042-4 0  9993
2 54754  77.6112  46.6718 0000209  97.6079 262.5096 14.00168560177974
GAOFEN-12 04            
1 57654U 23123A   26159.89031600  .00001078  00000+0  14864-3 0  9999
2 57654  97.9129  78.0272 0001777  86.6991 273.4424 14.80213487151408
PARS 1                  
1 59065U 24039Q   26159.83354043  .00011382  00000+0  23828-3 0  9996
2 59065  97.4819 140.4914 0010962 136.5644 223.6471 15.45553180127355
RESURS-P 4              
1 59371U 24061A   26159.83793366  .00003133  00000+0  10362-3 0  9990
2 59371  97.2745 107.8825 0001534 132.0615 228.0758 15.32084186122480
LEGION 1                
1 59625U 24081A   26159.78193282  .00003847  00000+0  20006-3 0  9997
2 59625  97.5015 237.7290 0010291  45.1222 315.0845 15.16609582116260
LEGION 2                
1 59626U 24081B   26159.81180034  .00003520  00000+0  18345-3 0  9994
2 59626  97.5015 237.8563 0011578  13.4765 346.6775 15.16589548116276
ALOS-4 (DAICHI-4)       
1 60182U 24123A   26159.83967190  .00001555  00000+0  21508-3 0  9999
2 60182  97.9244 257.1306 0001627  97.3387 262.8009 14.79469370104643
LEGION 3                
1 60452U 24146A   26159.76239925  .00004805  00000+0  25944-3 0  9993
2 60452  45.0011  75.7360 0006911 116.9954 243.1631 15.15975792100743
LEGION 4                
1 60453U 24146B   26159.50185334  .00003527  00000+0  19387-3 0  9994
2 60453  45.0002 169.0445 0014077 263.2205  96.7072 15.15972025 99555
SENTINEL-2C             
1 60989U 24157A   26159.78093133  .00000104  00000+0  56261-4 0  9996
2 60989  98.5692 234.6816 0001164  79.7535 280.3779 14.30815640 91784
IONOSFERA-M 1           
1 61735U 24199A   26159.82500164  .00000037  00000+0  35967-4 0  9999
2 61735  98.7184  33.0851 0001702 121.7041 238.4303 14.22752741126510
IONOSFERA-M 2           
1 61736U 24199B   26159.78899157  .00000049  00000+0  41541-4 0  9996
2 61736  98.7183  32.9602 0001376  46.4880 313.6413 14.22755988129633
PRSC-EO1                
1 62725U 25012A   26159.81832127  .00007598  00000+0  38044-3 0  9997
2 62725  97.4224 232.4416 0004229 290.4072  69.6707 15.17664873 76922
BIOMASS                 
1 63772U 25090A   26159.78343634  .00000815  00000+0  15227-3 0  9995
2 63772  98.0741 347.2223 0001419  91.1243 269.0124 14.67536094 59456
GOSAT-GW (IBUKI GW)     
1 64694U 25141A   26159.80382756  .00001401  00000+0  25542-3 0  9990
2 64694  98.0573  97.2573 0001435  83.2293 276.9074 14.67552959 50616
IONOSFERA-M 3           
1 64876U 25155A   26159.86955646  .00000065  00000+0  49366-4 0  9993
2 64876  98.6027 121.9842 0000512 174.2392 185.8791 14.21485151 45222
