OBJECT_NAME,OBJECT_ID,EPOCH,MEAN_MOTION,ECCENTRICITY,INCLINATION,RA_OF_ASC_NODE,ARG_OF_PERICENTER,MEAN_ANOMALY,EPHEMERIS_TYPE,CLASSIFICATION_TYPE,NORAD_CAT_ID,ELEMENT_SET_NO,REV_AT_EPOCH,BSTAR,MEAN_MOTION_DOT,MEAN_MOTION_DDOT
SAUDISAT 5A,2018-102A,2026-06-08T20:21:04.237344,15.27963113,.0010406,97.3070,221.5900,155.1304,205.0439,0,U,43831,999,41440,.22079E-3,.596E-4,0
SAUDISAT 5B,2018-102C,2026-06-08T20:50:14.478432,15.28224086,.0011034,97.3179,224.6644,157.6933,202.4789,0,U,43833,999,41452,.19945E-3,.542E-4,0
GAOFEN-10R,2019-066A,2026-06-08T20:31:15.601152,14.83043192,.0006091,98.0498,113.3738,150.8050,209.3504,0,U,44622,999,36114,.16071E-3,.1253E-4,0
CARTOSAT-3,2019-081A,2026-06-08T20:36:12.502656,15.19219256,.0012323,97.4303,221.8595,176.3859,183.7467,0,U,44804,999,36220,.11586E-3,.2375E-4,0
GAOFEN-12 01,2019-082A,2026-06-08T20:00:55.387296,14.80452009,.0002469,97.8101,166.4339,80.2460,279.9031,0,U,44819,999,35285,.62744E-4,.429E-5,0
CSG-1,2019-092A,2026-06-08T19:33:40.715712,14.82158305,.0001448,97.8888,343.5390,90.4234,269.7145,0,U,44873,999,35023,.68085E-4,.49E-5,0
NEMO-HD,2020-061F,2026-06-08T20:05:09.467232,15.44427316,.0002562,97.1923,221.8749,89.6388,270.5154,0,U,46277,999,32069,.24819E-3,.11394E-3,0
SENTINEL-6A,2020-086A,2026-06-08T17:33:09.400320,12.80929802,.0007927,66.0385,152.6152,270.2901,89.7206,0,U,46984,999,25924,.13155E-3,-.31E-6,0
CAS500-1,2021-022A,2026-06-08T20:02:19.617792,15.20239843,.0004096,97.3909,55.2569,335.5967,24.5074,0,U,47932,999,28949,.30815E-3,.6618E-4,0
GAOFEN-12 02,2021-026A,2026-06-08T20:15:33.707232,14.80289762,.0003339,97.9920,158.0590,258.7888,101.2949,0,U,48079,999,28052,.56663E-4,.379E-5,0
PLEIADES NEO 3,2021-034A,2026-06-08T21:05:56.336064,14.81667988,.0001381,97.8926,234.7653,85.4626,274.6745,0,U,48268,999,27642,.82384E-4,.596E-5,0
PLEIADES NEO 4,2021-073E,2026-06-08T20:17:19.722624,14.81666514,.0001392,97.8928,234.7277,84.3549,275.7822,0,U,49070,999,26013,.19482E-3,.1481E-4,0
LANDSAT 9,2021-088A,2026-06-08T18:00:08.637408,14.57105137,.0001458,98.2279,230.0293,88.2591,271.8775,0,U,49260,999,24977,.8096E-4,.319E-5,0
CSG-2,2022-008A,2026-06-08T20:22:15.760128,14.82148835,.000138,97.8890,343.5674,82.1067,278.0302,0,U,51444,999,23535,-.77042E-5,-.114E-5,0
GAOFEN-12 03,2022-069A,2026-06-08T20:56:27.631392,14.80022724,.0001726,97.8286,47.9518,110.0640,250.0758,0,U,52912,999,21338,.1311E-3,.941E-5,0
SWOT,2022-173A,2026-06-08T18:30:15.021216,14.00168560,.0000209,77.6112,46.6718,97.6079,262.5096,0,U,54754,999,17797,.27042E-4,.37E-6,0
GAOFEN-12 04,2023-123A,2026-06-08T21:22:03.302400,14.80213487,.0001777,97.9129,78.0272,86.6991,273.4424,0,U,57654,999,15140,.14864E-3,.1078E-4,0
PARS 1,2024-039Q,2026-06-08T20:00:17.893152,15.45553180,.0010962,97.4819,140.4914,136.5644,223.6471,0,U,59065,999,12735,.23828E-3,.11382E-3,0
RESURS-P 4,2024-061A,2026-06-08T20:06:37.468224,15.32084186,.0001534,97.2745,107.8825,132.0615,228.0758,0,U,59371,999,12248,.10362E-3,.3133E-4,0
LEGION 1,2024-081A,2026-06-08T18:45:58.995648,15.16609582,.0010291,97.5015,237.7290,45.1222,315.0845,0,U,59625,999,11626,.20006E-3,.3847E-4,0
LEGION 2,2024-081B,2026-06-08T19:28:59.549376,15.16589548,.0011578,97.5015,237.8563,13.4765,346.6775,0,U,59626,999,11627,.18345E-3,.352E-4,0
ALOS-4 (DAICHI-4),2024-123A,2026-06-08T20:09:07.652160,14.79469370,.0001627,97.9244,257.1306,97.3387,262.8009,0,U,60182,999,10464,.21508E-3,.1555E-4,0
LEGION 3,2024-146A,2026-06-08T18:17:51.295200,15.15975792,.0006911,45.0011,75.7360,116.9954,243.1631,0,U,60452,999,10074,.25944E-3,.4805E-4,0
LEGION 4,2024-146B,2026-06-08T12:02:40.127712,15.15972025,.0014078,45.0002,169.0445,263.2205,96.7072,0,U,60453,999,9955,.19387E-3,.3527E-4,0
SENTINEL-2C,2024-157A,2026-06-08T18:44:32.466912,14.30815640,.0001164,98.5692,234.6816,79.7535,280.3779,0,U,60989,999,9178,.56261E-4,.104E-5,0
IONOSFERA-M 1,2024-199A,2026-06-08T19:48:00.141696,14.22752741,.0001702,98.7184,33.0851,121.7041,238.4303,0,U,61735,999,12651,.35967E-4,.37E-6,0
IONOSFERA-M 2,2024-199B,2026-06-08T18:56:08.871648,14.22755988,.0001376,98.7183,32.9602,46.4880,313.6413,0,U,61736,999,12963,.41541E-4,.49E-6,0
PRSC-EO1,2025-012A,2026-06-08T19:38:22.957728,15.17664873,.0004229,97.4224,232.4416,290.4072,69.6707,0,U,62725,999,7692,.38044E-3,.7598E-4,0
BIOMASS,2025-090A,2026-06-08T18:48:08.899776,14.67536094,.0001419,98.0741,347.2223,91.1243,269.0124,0,U,63772,999,5945,.15227E-3,.815E-5,0
GOSAT-GW (IBUKI GW),2025-141A,2026-06-08T19:17:30.701184,14.67552959,.0001435,98.0573,97.2573,83.2293,276.9074,0,U,64694,999,5061,.25542E-3,.1401E-4,0
IONOSFERA-M 3,2025-155A,2026-06-08T20:52:09.678144,14.21485151,.0000512,98.6027,121.9842,174.2392,185.8791,0,U,64876,999,4522,.49366E-4,.65E-6,0
